lon,lat,ObjectID,Facility,MapLabel,City,County,FAACode,FAANum,AGL_ft,AGL_m,PmtLat,PmtLong,LatDMS,LongDMS,LatDD,LongDD,URL,File_Name
-119.667222,36.323333,1,Adventist Medical Center Hanford HP,Adventist MC Hanford,Hanford,Kings,15CN,01641.14*H,44,13.411,36-19-24.000N,119-40-02.000W,36-19-24.000N,119-40-02.000W,36.323333,-120,http://www.dot.ca.gov/hq/planning/aeronaut/helipads/dataplates/pdfs/Adventist_Medical_Center_Hanford_HP.pdf,Adventist_Medical_Center_Hanford_HP.pdf
-118.159972,34.687764,2,Antelope Valley Hospital Medical Center HP,Antelope MC Valley,Lancaster,Los Angeles,,,0,0,34-41-17.000N,118-09-31.000W,34-41-15.950N,118-09-35.900W,34.687764,-118,http://www.dot.ca.gov/hq/planning/aeronaut/helipads/dataplates/pdfs/Antelope_Valley_Hospital_Medical_Center_HP.pdf,Antelope_Valley_Hospital_Medical_Center_HP.pdf
-117.349375,34.074819,3,Arrowhead Regional Medical Center HP 1,Arrowhead MC Regional 1,Colton,San Bernardino,4CL9,01428.*H,0,0,34-04-31.000N,117-20-57.000W,34-04-29.350N,117-20-57.750W,34.074819,-117,http://www.dot.ca.gov/hq/planning/aeronaut/helipads/dataplates/pdfs/Arrowhead_Regional_Medical_Center_H1_and_H2_HP.pdf,Arrowhead_Regional_Medical_Center_H1_and_H2_HP.pdf
-117.349319,34.075431,4,Arrowhead Regional Medical Center HP 2,Arrowhead MC Regional 2,Colton,San Bernardino,4CL9,01428.*H,0,0,34-04-33.000N,117-20-57.000W,34-04-31.550N,117-20-57.550W,34.075431,-117,http://www.dot.ca.gov/hq/planning/aeronaut/helipads/dataplates/pdfs/Arrowhead_Regional_Medical_Center_H1_and_H2_HP.pdf,Arrowhead_Regional_Medical_Center_H1_and_H2_HP.pdf
-119.006319,35.391278,5,Bakersfield Memorial Hospital HP,Bakersfield Memorial,Bakersfield,Kern,CL60,01289.42*H,32,9.754,35-23-28.000N,119-00-19.000W,35-23-28.600N,119-00-22.750W,35.391278,-119,http://www.dot.ca.gov/hq/planning/aeronaut/helipads/dataplates/pdfs/Bakersfield_Memorial_Hospital_HP.pdf,Bakersfield_Memorial_Hospital_HP.pdf
-120.62875,40.437458,6,Banner Lassen Medical Center HP,Banner Lassen MC,Susanville,Lassen,99CN,02332.01*H,0,0,40-26-16.000N,120-37-40.000W,40-26-14.850N,120-37-43.500W,40.437458,-121,http://www.dot.ca.gov/hq/planning/aeronaut/helipads/dataplates/pdfs/Banner_Lassen_Medical_Center_HP.pdf,Banner_Lassen_Medical_Center_HP.pdf
-117.018264,34.894056,7,Barstow Community Hospital HP,Barstow Community,Barstow,San Bernardino,CL17,01299.84*H,0,0,34-53-33.000N,117-01-03.000W,34-53-38.600N,117-01-05.750W,34.894056,-117,http://www.dot.ca.gov/hq/planning/aeronaut/helipads/dataplates/pdfs/Barstow_Community_Hospital_HP.pdf,Barstow_Community_Hospital_HP.pdf
-119.996889,38.911278,8,Barton Memorial Hospital HP,Barton Memorial,South Lake Tahoe,El Dorado,CA43,02303.17*H,18.5,5.639,38-54-40.000N,119-59-48.000W,38-54-40.600N,119-59-48.800W,38.911278,-120,http://www.dot.ca.gov/hq/planning/aeronaut/helipads/dataplates/pdfs/Barton_Memorial_Hospital_HP.pdf,Barton_Memorial_Hospital_HP.pdf
-119.801608,36.88326,9,Childrens Hospital Central California HP 1,Childrens Central California 1,Madera,Madera,9CL6,01853.12*H,0,0,36-52-53.000N,119-48-06.000W,36-52-59.750N,119-48-05.800W,36.88326,-120,http://www.dot.ca.gov/hq/planning/aeronaut/helipads/dataplates/pdfs/Childrens_Hospital_Centeral_California_HP.pdf,Childrens_Hospital_Centeral_California_HP.pdf
-119.800097,36.882569,10,Childrens Hospital Central California HP 2,Childrens Central California 2,Madera,Madera,9CL6,01853.12*H,0,0,36-52-53.000N,119-48-06.000W,36-52-57.250N,119-48-00.350W,36.882569,-120,http://www.dot.ca.gov/hq/planning/aeronaut/helipads/dataplates/pdfs/Childrens_Hospital_Centeral_California_HP.pdf,Childrens_Hospital_Centeral_California_HP.pdf
-119.800014,36.881472,11,Childrens Hospital Central California HP 3,Childrens Central California 3,Madera,Madera,9CL6,01853.12*H,0,0,36-52-53.000N,119-48-06.000W,36-52-53.300N,119-48-00.050W,36.881472,-120,http://www.dot.ca.gov/hq/planning/aeronaut/helipads/dataplates/pdfs/Childrens_Hospital_Centeral_California_HP.pdf,Childrens_Hospital_Centeral_California_HP.pdf
-122.266778,37.836153,12,Childrens Hospital Oakland,Childrens Oakland,Oakland,Alameda,7CL1,01971.07*H,36,10.973,37-50-10.000N,122-16-00.000W,37-50-10.150N,122-16-00.400W,37.836153,-122,http://www.dot.ca.gov/hq/planning/aeronaut/helipads/dataplates/pdfs/Childrens_Hospital_Oakland_HP.pdf,Childrens_Hospital_Oakland_HP.pdf
-118.290972,34.097278,13,Childrens Hospital of Los Angeles HP 1,Childrens Los Angeles 1,Los Angeles,Los Angeles,29CL,01817.43*H,109,33.223,34-05-51.000N,118-17-20.000W,34-05-50.200N,118-17-27.500W,34.097278,-118,http://www.dot.ca.gov/hq/planning/aeronaut/helipads/dataplates/pdfs/Childrens_Hospital_of_Los_Angeles_HP.pdf,Childrens_Hospital_of_Los_Angeles_HP.pdf
-118.288667,34.097278,14,Childrens Hospital of Los Angeles HP 2,Childrens Los Angeles 2,Los Angeles,Los Angeles,29CL,01817.43*H,138,42.062,34-05-51.000N,118-17-20.000W,34-05-50.200N,118-17-19.200W,34.097278,-118,http://www.dot.ca.gov/hq/planning/aeronaut/helipads/dataplates/pdfs/Childrens_Hospital_of_Los_Angeles_HP.pdf,Childrens_Hospital_of_Los_Angeles_HP.pdf
-117.865403,33.781458,15,Childrens Hospital of Orange County North Tower HP,Childrens Orange County,Orange,Orange,4CA5,01989.14*H,103,31.394,33-46-53.000N,117-51-54.000W,33-46-53.250N,117-51-55.450W,33.781458,-118,http://www.dot.ca.gov/hq/planning/aeronaut/helipads/dataplates/pdfs/Childrens_Hospital_of_Orange_County_HP.pdf,Childrens_Hospital_of_Orange_County_HP.pdf
-119.659097,36.838611,16,Clovis Community Hospital HP,Clovis Community,Clovis,Fresno,,,0,0,36-50-19.000N,119-39-29.000W,36-50-19.000N,119-39-32.750W,36.838611,-120,http://www.dot.ca.gov/hq/planning/aeronaut/helipads/dataplates/pdfs/Clovis_Community_Hospital_HP.pdf,Clovis_Community_Hospital_HP.pdf
-119.259208,34.274722,17,Community Memorial Hospital HP,Community Memorial,Ventura,Ventura,CA72,02401.51*H,38,11.582,34-16-29.000N,119-15-25.000W,34-16-29.000N,119-15-33.150W,34.274722,-119,http://www.dot.ca.gov/hq/planning/aeronaut/helipads/dataplates/pdfs/Community_Memorial_Hospital_HP.pdf,Community_Memorial_Hospital_HP.pdf
-119.785278,36.744111,18,Community Regional Medical Center HP A,Community Regional  MC A,Fresno,Fresno,CN51,01590.13*H,115,35.052,36-44-39.000N,119-47-07.000W,36-44-38.800N,119-47-07.000W,36.744111,-120,http://www.dot.ca.gov/hq/planning/aeronaut/helipads/dataplates/pdfs/Community_Regional_Medical_Center_HP_A_and_B.pdf,Community_Regional_Medical_Center_HP_A_and_B.pdf
-119.785278,36.743649,19,Community Regional Medical Center HP B,Community Regional  MC B,Fresno,Fresno,CN51,01590.13*H,115,35.052,36-44-37.000N,119-47-07.000W,36-44-37.000N,119-47-07.000W,36.743649,-120,http://www.dot.ca.gov/hq/planning/aeronaut/helipads/dataplates/pdfs/Community_Regional_Medical_Center_HP_A_and_B.pdf,Community_Regional_Medical_Center_HP_A_and_B.pdf
-119.785,36.743,20,Community Regional Medical Center HP C,Community Regional  MC C,Fresno,Fresno,CN51,01590.13*H,120,36.576,36-44-35.000N,119-47-06.000W,36-44-34.800N,119-47-06.000W,36.743,-120,http://www.dot.ca.gov/hq/planning/aeronaut/helipads/dataplates/pdfs/Community_Regional_Medical_Center_HP_C.pdf,Community_Regional_Medical_Center_HP_C.pdf
-116.543889,33.838472,21,Desert Regional Medical Center HP,Desert Regional MC,Palm Springs,Riverside,7CA4,02017.15*H,45,13.716,33-50-20.000N,116-32-30.000W,33-50-18.500N,116-32-38.000W,33.838472,-117,http://www.dot.ca.gov/hq/planning/aeronaut/helipads/dataplates/pdfs/Desert_Regional_Medical_Center_HP.pdf,Desert_Regional_Medical_Center_HP.pdf
-120.997431,37.665431,22,Doctors Medical Center of Modesto HP,Doctors MC Modesto,Modesto,Stanislaus,,,52,15.85,37-39-53.000N,120-59-46.000W,37-39-55.550N,120-59-50.750W,37.665431,-121,http://www.dot.ca.gov/hq/planning/aeronaut/helipads/dataplates/pdfs/Doctors_Medical_Center_of_Modesto_HP.pdf,Doctors_Medical_Center_of_Modesto_HP.pdf
-122.337222,37.953694,23,Doctors Medical Center San Pablo Campus HP,Doctors MC San Pablo Campus,San Pablo,Contra Costa,17CA,02220.8*H,0,0,37-57-15.000N,122-20-10.000W,37-57-13.300N,122-20-14.000W,37.953694,-122,http://www.dot.ca.gov/hq/planning/aeronaut/helipads/dataplates/pdfs/Doctors_Medical_Center_San_Pablo_Campus_HP.pdf,Doctors_Medical_Center_San_Pablo_Campus_HP.pdf
-121.982458,36.990653,24,Dominican Hospital HP,Dominican,Santa Cruz,Santa Cruz,CA37,02241.12*H,0,0,36-59-27.000N,121-58-52.000W,36-59-26.350N,121-58-56.850W,36.990653,-122,http://www.dot.ca.gov/hq/planning/aeronaut/helipads/dataplates/pdfs/Dominican_Hospital_HP.pdf,Dominican_Hospital_HP.pdf
-116.404889,33.764028,25,Eisenhower Medical Center HP,Eisenhower MC,Rancho Mirage,Riverside,7CA8,02078.72*H,0,0,33-45-57.000N,116-24-20.000W,33-45-50.500N,116-24-17.600W,33.764028,-116,http://www.dot.ca.gov/hq/planning/aeronaut/helipads/dataplates/pdfs/Eisenhower_Medical_Center_HP.pdf,Eisenhower_Medical_Center_HP.pdf
-115.568611,32.779861,26,El Centro Regional Medical Center HP,El Centro Regional MC,El Centro,Imperial,76CN,01531.*H,40,12.192,32-46-47.000N,115-34-07.000W,32-46-47.500N,115-34-07.000W,32.779861,-116,http://www.dot.ca.gov/hq/planning/aeronaut/helipads/dataplates/pdfs/El_Centro_Regional_Medical_Center_HP.pdf,El_Centro_Regional_Medical_Center_HP.pdf
-120.839167,37.512583,27,Emanuel Medical Center Roof Top HP,Emanuel MC Roof Top,Turlock,Stanislaus,CA58,02376.2*H,60,18.288,37-30-45.000N,120-50-21.000W,37-30-45.300N,120-50-21.000W,37.512583,-121,http://www.dot.ca.gov/hq/planning/aeronaut/helipads/dataplates/pdfs/Emanual_Medical_Center_Roof_Top_HP.pdf,Emanual_Medical_Center_Roof_Top_HP.pdf
-121.850208,39.741903,28,Enloe Medical Center HP,Enloe MC,Chico,Butte,CL37,01395.01*H,64,19.507,39-44-32.000N,121-50-57.000W,39-44-30.850N,121-51-00.750W,39.741903,-122,http://www.dot.ca.gov/hq/planning/aeronaut/helipads/dataplates/pdfs/Enloe_Medical_Center_HP.pdf,Enloe_Medical_Center_HP.pdf
-117.870667,34.133444,29,Foothill Presbyterian Hospital HP,Foothill Presbyterian,Glendora,Los Angeles,14CL,01612.5*H,0,0,34-08-00.000N,117-52-06.000W,34-08-00.400N,117-52-14.400W,34.133444,-118,http://www.dot.ca.gov/hq/planning/aeronaut/helipads/dataplates/pdfs/Foothill_Presbyterian_Hospital_HP.pdf,Foothill_Presbyterian_Hospital_HP.pdf
-121.1325,36.205528,30,George L Mee Memorial Hospital HP,George L Mee Memorial,King City,Monterey,09CA,01713.01*H,0,0,36-12-20.000N,121-07-57.000W,36-12-19.900N,121-07-57.000W,36.205528,-121,http://www.dot.ca.gov/hq/planning/aeronaut/helipads/dataplates/pdfs/George_L_Mee_Memorial_Hospital_HP.pdf,George_L_Mee_Memorial_Hospital_HP.pdf
-118.230625,34.151736,31,Glendale Adventist Medical Center HP,Glendale Adventist MC,Glendale,Los Angeles,CL06,01611.14*H,62,18.898,34-09-06.000N,118-13-45.000W,34-09-06.250N,118-13-50.250W,34.151736,-118,http://www.dot.ca.gov/hq/planning/aeronaut/helipads/dataplates/pdfs/Glendale_Adventist_Medical_Center_HP.pdf,Glendale_Adventist_Medical_Center_HP.pdf
-121.947444,37.253222,33,Good Samaritan Hospital HP,Good Samaritan,San Jose,Santa Clara,,,13,3.962,37-15-12.000N,121-56-46.000W,37-15-11.600N,121-56-50.800W,37.253222,-122,http://www.dot.ca.gov/hq/planning/aeronaut/helipads/dataplates/pdfs/Good_Samaritan_Hospital_HP.pdf,Good_Samaritan_Hospital_HP.pdf
-118.264903,34.054972,34,Good Samaritan Hospital (LA) HP,Good Samaritan  LA,Los Angeles,Los Angeles,0CL7,01817.48*H,133,40.538,34-03-16.000N,118-15-51.000W,34-03-17.900N,118-15-53.650W,34.054972,-118,http://www.dot.ca.gov/hq/planning/aeronaut/helipads/dataplates/pdfs/Good_Samaritan_Hospital_LA_HP.pdf,Good_Samaritan_Hospital_LA_HP.pdf
-117.006917,32.779444,35,Grossmont District Hospital HP,Grossmont District,La Mesa,San Diego,03CA,01746.11*H,0,0,32-46-46.000N,117-00-22.000W,32-46-46.000N,117-00-24.900W,32.779444,-117,http://www.dot.ca.gov/hq/planning/aeronaut/helipads/dataplates/pdfs/Grossmont_District_Hospital_HP.pdf,Grossmont_District_Hospital_HP.pdf
-119.659514,36.329764,36,Hanford Community Medical Center HP,Hanford Community MC,Hanford,Kings,4CL8,01641.21*H,7,2.134,36-19-48.000N,119-39-31.000W,36-19-47.150N,119-39-34.250W,36.329764,-120,http://www.dot.ca.gov/hq/planning/aeronaut/helipads/dataplates/pdfs/Hanford_Community_Medical_Center_HP.pdf,Hanford_Community_Medical_Center_HP.pdf
-118.292613,33.829183,37,Harbor/UCLA Medical Center HP,Harbor UCLA MC,Torrance,Los Angeles,,,10,3.048,33-49-42.000N,118-17-52.000W,33-49-45.000N,118-17-33.000W,33.829183,-118,http://www.dot.ca.gov/hq/planning/aeronaut/helipads/dataplates/pdfs/Harbor_UCLA_Medical_Center_HP.pdf,
-121.3865,36.834694,38,Hazel Hawkins Memorial Hospital HP,Hazel Hawkins Memorial,Hollister,San Benito,9CN1,01668.12*H,29,8.839,36-50-05.000N,121-23-11.000W,36-50-04.900N,121-23-11.400W,36.834694,-121,http://www.dot.ca.gov/hq/planning/aeronaut/helipads/dataplates/pdfs/Hazel_Hawkins_Memorial_Hospital_HP.pdf,Hazel_Hawkins_Memorial_Hospital_HP.pdf
-118.551667,34.399167,39,Henry Mayo Newhall Memorial Hospital HP,Henry Mayo Newhall Memorial,Santa Clarita,Los Angeles,,,109,33.223,34-23-57.000N,118-33-06.000W,34-23-57.000N,118-33-06.000W,34.399167,-119,http://www.dot.ca.gov/hq/planning/aeronaut/helipads/dataplates/pdfs/HenryMayoNewhallMemorialHospital_HP.pdf,HenryMayoNewhallMemorialHospital_HP.pdf
-116.275778,34.131278,40,Hi-Desert Medical Center HP,Hi-Desert MC,Joshua Tree,San Bernardino,9CA4,01705.81*H,0,0,34-07-54.000N,116-16-32.000W,34-07-52.600N,116-16-32.800W,34.131278,-116,http://www.dot.ca.gov/hq/planning/aeronaut/helipads/dataplates/pdfs/Hi-Desert_Medical_Center_HP.pdf,Hi-Desert_Medical_Center_HP.pdf
-117.930764,33.625139,41,Hoag Memorial Hospital HP,Hoag Memorial,Newport Beach,Orange,14CA,01947.01*H,16,4.877,33-37-27.000N,117-55-43.000W,33-37-30.500N,117-55-50.750W,33.625139,-118,http://www.dot.ca.gov/hq/planning/aeronaut/helipads/dataplates/pdfs/Hoag_Memorial_Hospital_HP.pdf,Hoag_Memorial_Hospital_HP.pdf
-118.290403,34.096319,42,Hollywood Presbyterian Medical Center HP,Hollywood Presbyterian MC,Los Angeles,Los Angeles,CL70,01817.4*H,135,41.148,34-05-47.000N,118-17-22.000W,34-05-46.750N,118-17-25.450W,34.096319,-118,http://www.dot.ca.gov/hq/planning/aeronaut/helipads/dataplates/pdfs/Hollywood_Presbyterian_Medical_Center_HP.pdf,Hollywood_Presbyterian_Medical_Center_HP.pdf
-118.152083,34.134389,43,Huntington Memorial Hospital HP 2,Huntington Memorial  2,Pasadena,Los Angeles,CL14,02029.42*H,111,33.833,34-08-02.000N,118-09-08.000W,34-08-03.800N,118-09-07.500W,34.134389,-118,http://www.dot.ca.gov/hq/planning/aeronaut/helipads/dataplates/pdfs/Huntington_Memorial_Hospital_HP_2.pdf,Huntington_Memorial_Hospital_HP_2.pdf
-120.937222,40.141194,44,Indian Valley Hospital HP,Indian Valley,Greenville,Plumas,30CA,01631.*H,0,0,40-08-28.000N,120-56-14.000W,40-08-28.300N,120-56-14.000W,40.141194,-121,http://www.dot.ca.gov/hq/planning/aeronaut/helipads/dataplates/pdfs/Indian_Valley_Hospital_HP.pdf,Indian_Valley_Hospital_HP.pdf
-117.237194,33.592569,45,Inland Valley Medical Center HP,Inland Valley MC,Wildomar,Riverside,2CL8,02449.*H,0,0,33-35-33.000N,117-14-11.000W,33-35-33.250N,117-14-13.900W,33.592569,-117,http://www.dot.ca.gov/hq/planning/aeronaut/helipads/dataplates/pdfs/Inland_Valley_Medical_Center_HP.pdf,Inland_Valley_Medical_Center_HP.pdf
-119.977847,37.499764,46,John C Fremont Healthcare District HP,John C Fremont Healthcare District,Mariposa,Mariposa,,,0,0,37-30-00.000N,119-58-36.000W,37-29-59.150N,119-58-40.250W,37.499764,-120,http://www.dot.ca.gov/hq/planning/aeronaut/helipads/dataplates/pdfs/John_C_Fremont_Hospital_HP.pdf,John_C_Fremont_Hospital_HP.pdf
-116.236806,33.705861,47,John F Kennedy Memorial Hospital HP,John F Kennedy Memorial,Indio,Riverside,42CA,01688.2*H,0,0,33-42-21.000N,116-14-12.000W,33-42-21.100N,116-14-12.500W,33.705861,-116,http://www.dot.ca.gov/hq/planning/aeronaut/helipads/dataplates/pdfs/John_F_Kennedy_Memorial_Hospital_HP.pdf,John_F_Kennedy_Memorial_Hospital_HP.pdf
-122.041597,37.912847,48,John Muir Medical Center Walnut Creek HP,John Muir MC Walnut Creek,Walnut Creek,Contra Costa,CA63,02416.1*H,93,28.346,37-54-46.000N,122-02-30.000W,37-54-46.250N,122-02-29.750W,37.912847,-122,http://www.dot.ca.gov/hq/planning/aeronaut/helipads/dataplates/pdfs/John_Muir_Medical_Center_Walnut_Creek_HP.pdf,John_Muir_Medical_Center_Walnut_Creek_HP.pdf
-121.733683,37.924097,49,John Muir Mt Diablo Medical Center HP,John Muir Mt Diablo MC,Brentwood,Contra Costa,,,8,2.438,37-55-28.000N,121-43-57.000W,37-55-26.750N,121-44-01.260W,37.924097,-122,http://www.dot.ca.gov/hq/planning/aeronaut/helipads/dataplates/pdfs/John_Muir_Mt_Diablo_Medical_Center_HP.pdf,John_Muir_Mt_Diablo_Medical_Center_HP.pdf
-117.432361,34.0725,50,Kaiser Fontana HP,Kaiser Fontana,Fontana,San Bernardino,94CA,01576.1*H,77,23.47,34-04-22.000N,117-25-53.000W,34-04-21.000N,117-25-56.500W,34.0725,-117,http://www.dot.ca.gov/hq/planning/aeronaut/helipads/dataplates/pdfs/Kaiser_Fontana_HP.pdf,Kaiser_Fontana_HP.pdf
-121.247097,37.797931,51,Kaiser Foundation Hospital Manteca HP,Kaiser Foundation Manteca,Manteca,San Joaquin,,,0,0,37-47-54.000N,121-14-44.000W,37-47-52.550N,121-14-49.550W,37.797931,-121,http://www.dot.ca.gov/hq/planning/aeronaut/helipads/dataplates/pdfs/Kaiser_Foundation_Hospital_Manteca_HP.pdf,Kaiser_Foundation_Hospital_Manteca_HP.pdf
-117.844998,33.851944,52,Kaiser Permanente Anaheim Medical Center HP,Kaiser Permanente MC Anaheim,Anaheim,Orange,,,105,32.004,33-51-07.000N,117-50-42.000W,33-51-07.000N,117-50-42.000W,33.851944,-118,http://www.dot.ca.gov/hq/planning/aeronaut/helipads/dataplates/pdfs/Kaiser_Permanente_Anaheim_Medical_Center_HP.pdf,Kaiser_Permanente_Anaheim_Medical_Center_HP.pdf
-121.999819,37.335,53,Kaiser Permanente Medical Center Santa Clara HP,Kaiser Permanente MC Santa Clara,Santa Clara,Santa Clara,,,17,5.182,37-20-06.000N,122-59-59.000W,37-20-06.000N,121-59-59.350W,37.335,-122,http://www.dot.ca.gov/hq/planning/aeronaut/helipads/dataplates/pdfs/Kaiser_Permanente_Medical_Center_Santa_Clara_HP.pdf,Kaiser_Permanente_Medical_Center_Santa_Clara_HP.pdf
-121.052819,37.708014,54,Kaiser Permanente Modesto HP,Kaiser Permanente Modesto,Modesto,Stanislaus,,,10,3.048,37-42-28.000N,121-03-14.000W,37-42-28.850N,121-03-10.150W,37.708014,-121,http://www.dot.ca.gov/hq/planning/aeronaut/helipads/dataplates/pdfs/Kaiser_Permanente_Modesto_HP.pdf,Kaiser_Permanente_Modesto_HP.pdf
-121.420722,38.469819,55,Kaiser South Sacramento Hospital HP,Kaiser South Sacramento,Sacramento,Sacramento,6CN6,02124.07*H,10,3.048,38-28-11.000N,121-25-14.000W,38-28-11.350N,121-25-14.600W,38.469819,-121,http://www.dot.ca.gov/hq/planning/aeronaut/helipads/dataplates/pdfs/Kaiser_South_Sacramento_Hospital_HP.pdf,Kaiser_South_Sacramento_Hospital_HP.pdf
-118.969653,35.382431,56,Kern Medical Center Rooftop HP,Kern MC Rooftop,Bakersfield,Kern,CL61,01291.41*H,34,10.363,35-23-03.000N,118-58-09.000W,35-22-56.750N,118-58-10.750W,35.382431,-119,http://www.dot.ca.gov/hq/planning/aeronaut/helipads/dataplates/pdfs/Kern_Medical_Center_Rooftop_HP.pdf,Kern_Medical_Center_Rooftop_HP.pdf
-118.406806,35.634514,57,Kern Valley Hospital HP,Kern Valley,Lake Isabella,Kern,,,2,0.61,35-38-04.000N,118-24-21.000W,35-38-04.250N,118-24-24.500W,35.634514,-118,http://www.dot.ca.gov/hq/planning/aeronaut/helipads/dataplates/pdfs/Kern_Valley_Hospital_HP.pdf,Kern_Valley_Hospital_HP.pdf
-118.211778,34.059722,58,LAC USC Medical Center Ground HP,LAC USC MC Ground,Los Angeles,Los Angeles,35CA,1817.63*H,0,0,34-03-35.000N,118-12-39.000W,34-03-35.000N,118-12-42.400W,34.059722,-118,http://www.dot.ca.gov/hq/planning/aeronaut/helipads/dataplates/pdfs/LAC_USC_Medical_Center_Ground_HP.pdf,LAC_USC_Medical_Center_Ground_HP.pdf
-118.208125,34.057778,59,LAC USC Medical Center Rooftop HP,LAC USC MC Rooftop,Los Angeles,Los Angeles,35CA,1817.63*H,114,34.747,34-03-27.000N,118-12-29.000W,34-03-28.000N,118-12-29.250W,34.057778,-118,http://www.dot.ca.gov/hq/planning/aeronaut/helipads/dataplates/pdfs/LAC_USC_Medical_Center_Rooftop_HP.pdf,LAC_USC_Medical_Center_Rooftop_HP.pdf
-121.286708,38.122431,60,Lodi Memorial Hospital HP,Lodi Memorial,Lodi,San Joaquin,8CL7,01782.02*H,0,0,38-07-21.000N,121-17-09.000W,38-07-20.750N,121-17-12.150W,38.122431,-121,http://www.dot.ca.gov/hq/planning/aeronaut/helipads/dataplates/pdfs/Lodi_Memorial_Hospital_HP.pdf,Lodi_Memorial_Hospital_HP.pdf
-117.264194,34.050139,61,Loma Linda University Medical Center N HP,Loma Linda University MC N,Loma Linda,San Bernardino,94CL,01785.1*H,99,30.175,34-03-00.000N,117-15-50.000W,34-03-00.500N,117-15-51.100W,34.050139,-117,http://www.dot.ca.gov/hq/planning/aeronaut/helipads/dataplates/pdfs/Loma_Linda_University_Medical_Center_N_and_S_HP.pdf,Loma_Linda_University_Medical_Center_N_and_S_HP.pdf
-117.263889,34.048889,62,Loma Linda University Medical Center S HP,Loma Linda University MC S,Loma Linda,San Bernardino,94CL,01785.1*H,84,25.603,34-02-56.000N,117-15-50.000W,34-02-56.000N,117-15-50.000W,34.048889,-117,http://www.dot.ca.gov/hq/planning/aeronaut/helipads/dataplates/pdfs/Loma_Linda_University_Medical_Center_N_and_S_HP.pdf,Loma_Linda_University_Medical_Center_N_and_S_HP.pdf
-118.186625,33.808708,63,Long Beach Memorial Medical Center HP,Long Beach Memorial MC,Long Beach,Los Angeles,30CL,01794.21*H,34,10.363,33-48-30.000N,118-11-11.000W,33-48-31.350N,118-11-11.850W,33.808708,-118,http://www.dot.ca.gov/hq/planning/aeronaut/helipads/dataplates/pdfs/Long_Beach_Memorial_Medical_Center_HP.pdf,Long_Beach_Memorial_Medical_Center_HP.pdf
-118.883028,34.206833,64,Los Robles Medical Center 2 HP,Los Robles MC 2,Thousand Oaks,Ventura,CL82,02352.34*H,24,7.315,34-12-24.000N,118-53-00.000W,34-12-24.600N,118-52-58.900W,34.206833,-119,http://www.dot.ca.gov/hq/planning/aeronaut/helipads/dataplates/pdfs/Los_Robles_Medical_Center_2_HP.pdf,Los_Robles_Medical_Center_2_HP.pdf
-124.090917,40.895278,65,Mad River Community Hospital HP,Mad River Community,Arcata/Eureka,Humboldt,,,0,0,40-53-43.300N,124-05-27.600W,40-53-43.000N,124-05-27.300W,40.895278,-124,http://www.dot.ca.gov/hq/planning/aeronaut/helipads/dataplates/pdfs/Mad_River_Community_Hospital_HP.pdf,Mad_River_Community_Hospital_HP.pdf
-118.26625,34.035069,66,Maguire-California Hospital HP,Maguire-California,Los Angeles,,CA23,02396.01*H,148,45.11,34-02-07.000N,118-15-58.000W,34-02-06.250N,118-15-58.500W,34.035069,-118,http://www.dot.ca.gov/hq/planning/aeronaut/helipads/dataplates/pdfs/MaguireCaliforniaHospitalHP.pdf,MaguireCaliforniaHospitalHP.pdf
-120.413028,34.950389,67,Marian Medical Center HP,Marian MC,Santa Maria,Santa Barbara,1CL8,02246.2*H,10,3.048,34-57-02.000N,120-24-42.000W,34-57-01.400N,120-24-46.900W,34.950389,-120,http://www.dot.ca.gov/hq/planning/aeronaut/helipads/dataplates/pdfs/Marian_Medical_Center_HP.pdf,Marian_Medical_Center_HP.pdf
-120.669167,38.190708,68,Mark Twain St Joseph's Hospital HP,Mark Twain St Josephs,San Andreas,Calaveras,CA25,02141.12*H,0,0,38-11-34.000N,120-40-24.000W,38-11-26.550N,120-40-09.000W,38.190708,-121,http://www.dot.ca.gov/hq/planning/aeronaut/helipads/dataplates/pdfs/Mark_Twain_St_Josephs_Hospital_HP.pdf,Mark_Twain_St_Josephs_Hospital_HP.pdf
-120.858958,37.064514,69,Memorial Hospital of Los Banos HP,Memorial  Los Banos,Los Banos,Merced,,,0,0,37-03-52.000N,120-51-33.000W,37-03-52.250N,120-51-32.250W,37.064514,-121,http://www.dot.ca.gov/hq/planning/aeronaut/helipads/dataplates/pdfs/Memorial_Hospital_of_Los_Banos_HP.pdf,Memorial_Hospital_of_Los_Banos_HP.pdf
-120.972069,37.669139,70,Memorial Medical Center HP - Modesto,Memorial MC Modesto,Modesto,Stanislaus,,,0,0,37-40-10.000N,120-58-19.000W,37-40-08.900N,120-58-19.450W,37.669139,-121,http://www.dot.ca.gov/hq/planning/aeronaut/helipads/dataplates/pdfs/Memorial_Medical_Center_Modesto_HP.pdf,Memorial_Medical_Center_Modesto_HP.pdf
-123.799597,39.431875,71,Mendocino Coast District Hospital HP,Mendocino Coast District,Fort Bragg,Mendocino,CN01,01581.15*H,0,0,39-25-55.000N,123-47-55.000W,39-25-54.750N,123-47-58.550W,39.431875,-124,http://www.dot.ca.gov/hq/planning/aeronaut/helipads/dataplates/pdfs/Mendocino_Coast_District_Hospital_HP.pdf,Mendocino_Coast_District_Hospital_HP.pdf
-120.466667,37.340833,72,Mercy Medical Center Merced HP,Mercy MC Merced,Merced,Merced,86CN,01886.11*H,0,0,37-20-27.000N,120-28-00.000W,37-20-27.000N,120-28-00.000W,37.340833,-120,http://www.dot.ca.gov/hq/planning/aeronaut/helipads/dataplates/pdfs/Mercy_Medical_Center_Merced_HP.pdf,Mercy_Medical_Center_Merced_HP.pdf
-122.320028,41.318611,73,Mercy Medical Center of Mt Shasta HP,Mercy MC Mt Shasta,Redding,Shasta,,,0,0,41-19-07.000N,122-19-08.000W,41-19-07.000N,122-19-12.100W,41.318611,-122,http://www.dot.ca.gov/hq/planning/aeronaut/helipads/dataplates/pdfs/Mercy_Medical_Center_of_Mt_Shasta_HP.pdf,Mercy_Medical_Center_of_Mt_Shasta_HP.pdf
-122.396625,40.57225,74,Mercy Medical Center Redding HP,Mercy MC Redding,Mt. Shasta,Siskiyou,7CA3,02088.11*H,0,0,40-34-20.000N,122-23-48.000W,40-34-20.100N,122-23-47.850W,40.57225,-122,http://www.dot.ca.gov/hq/planning/aeronaut/helipads/dataplates/pdfs/Mercy_Medical_Center_Redding_HP.pdf,Mercy_Medical_Center_Redding_HP.pdf
-121.314375,38.669139,75,Mercy San Juan Medical Center HP,Mercy San Juan MC,Carmichael,Sacramento,4CL5,01377.4*H,47,14.326,38-40-09.000N,121-18-53.000W,38-40-08.900N,121-18-51.750W,38.669139,-121,http://www.dot.ca.gov/hq/planning/aeronaut/helipads/dataplates/pdfs/Mercy_San_Juan_Medical_Center_HP.pdf,Mercy_San_Juan_Medical_Center_HP.pdf
-117.666208,33.560764,76,Mission Hospital HP,Mission,Mission Viejo,Orange,CA55,01893.*H,90,27.432,33-33-38.000N,117-39-55.000W,33-33-38.750N,117-39-58.350W,33.560764,-118,http://www.dot.ca.gov/hq/planning/aeronaut/helipads/dataplates/pdfs/Mission_Hospital_HP.pdf,Mission_Hospital_HP.pdf
-119.230153,38.252347,77,Mono Medical Center HP,Mono MC,Bridgeport,Mono,CN10,01346.1*H,0,0,38-15-08.000N,119-13-50.000W,38-15-08.450N,119-13-48.550W,38.252347,-119,http://www.dot.ca.gov/hq/planning/aeronaut/helipads/dataplates/pdfs/Mono_Medical_Center_HP.pdf,Mono_Medical_Center_HP.pdf
-117.167778,34.265486,78,Mountains Community Hospital HP,Mountains Community,Lake Arrowhead,San Bernardino,47CA,01739.09*H,0,0,34-15-55.000N,117-10-04.000W,34-15-55.750N,117-10-04.000W,34.265486,-117,http://www.dot.ca.gov/hq/planning/aeronaut/helipads/dataplates/pdfs/Mountains_Community_Hospital_HP.pdf,Mountains_Community_Hospital_HP.pdf
-121.634542,36.697486,79,Natividad Medical Center HP,Natividad MC,Salinas,Monterey,5CL4,02137.15*H,0,0,36-41-52.000N,121-39-02.000W,36-41-50.950N,121-38-04.350W,36.697486,-122,http://www.dot.ca.gov/hq/planning/aeronaut/helipads/dataplates/pdfs/Natividad_Medical_Center_HP.pdf,Natividad_Medical_Center_HP.pdf
-122.04825,38.261292,80,North Bay Medical Center HP,North Ba MC,Fairfield,Solano,,,39,11.887,38-15-41.000N,122-02-50.000W,38-15-40.650N,122-02-53.700W,38.261292,-122,http://www.dot.ca.gov/hq/planning/aeronaut/helipads/dataplates/pdfs/North_Bay_Medical_Center_HP.pdf,North_Bay_Medical_Center_HP.pdf
-118.5325,34.22,81,Northridge Hospital Medical Center HP,Northridge MC,Northridge,Los Angeles,CA86,01818.41*H,166,50.597,34-13-13.000N,118-31-56.000W,34-13-12.000N,118-31-57.000W,34.22,-119,http://www.dot.ca.gov/hq/planning/aeronaut/helipads/dataplates/pdfs/Northridge_Hospital_Medical_Center_HP.pdf,Northridge_Hospital_Medical_Center_HP.pdf
-118.445028,34.326833,82,Olive View Medical Center HP,Olive View MC,Sylmar,Los Angeles,CA64,02333.01*H,0,0,34-19-36.000N,118-26-39.000W,34-19-36.600N,118-26-42.100W,34.326833,-118,http://www.dot.ca.gov/hq/planning/aeronaut/helipads/dataplates/pdfs/Olive_View_Medical_Center_HP.pdf,Olive_View_Medical_Center_HP.pdf
-121.541528,39.507444,83,Oroville Hospital HP,Oroville,Oroville,Butte,,,0,0,39-30-28.000N,121-32-38.000W,39-30-26.800N,121-32-29.500W,39.507444,-122,http://www.dot.ca.gov/hq/planning/aeronaut/helipads/dataplates/pdfs/Oroville_Hospital_HP.pdf,Oroville_Hospital_HP.pdf
-118.1451,34.58225,84,Palmdale Medical Center HP,Palmdale MC,Palmdale,Los Angeles,50CN,02005.11*H,0,0,34-34-57.000N,118-08-44.000W,34-34-56.100N,118-08-42.350W,34.58225,-118,http://www.dot.ca.gov/hq/planning/aeronaut/helipads/dataplates/pdfs/Palmdale_Medical_Center_HP.pdf,Palmdale_Medical_Center_HP.pdf
-117.075625,33.124514,85,Palomar Medical Center HP Downtown,Palomar MC Downtown,Escondido,San Diego,,,28,8.534,33-07-28.000N,117-04-28.000W,33-07-28.250N,117-04-32.250W,33.124514,-117,http://www.dot.ca.gov/hq/planning/aeronaut/helipads/dataplates/pdfs/Palomar_Medical_Center_HP.pdf,Palomar_Medical_Center_HP.pdf
-117.121944,33.122306,86,Palomar Medical Center HP,Palomar MC,Escondido,San Diego,,,191,58.217,33-07-20.000N,117-07-19.000W,33-07-20.300N,117-07-19.000W,33.122306,-117,http://www.dot.ca.gov/hq/planning/aeronaut/helipads/dataplates/pdfs/Palomar_Medical_Center_West_HP.pdf,Palomar_Medical_Center_West_HP.pdf
-122.631528,38.255528,87,Petaluma Valley Hospital HP,Petaluma Valley,Petaluma,Sonoma,,,0,0,38-15-19.000N,122-37-46.000W,38-15-19.900N,122-37-53.500W,38.255528,-123,http://www.dot.ca.gov/hq/planning/aeronaut/helipads/dataplates/pdfs/Petaluma_Valley_Hospital_HP.pdf,Petaluma_Valley_Hospital_HP.pdf
-117.17,33.614658,88,Loma Linda University Medical Center - Murrieta HP,Loma Linda MC Murrieta,Murrieta,Riverside,40CN,01931.62*H,8,2.438,33-36-53.000N,117-10-11.000W,33-36-52.750N,117-10-12.000W,33.614658,-117,http://www.dot.ca.gov/hq/planning/aeronaut/helipads/dataplates/pdfs/Loma_Linda_University_Medical_Center_Murrieta_HP.pdf,Loma_Linda_University_Medical_Center_Murrieta_HP.pdf
-115.553097,32.958458,89,Pioneers Memorial Hospital HP,Pioneers Memorial,Brawley,Imperial,9CA2,01342.1*H,0,0,32-57-30.000N,115-33-11.300W,32-57-30.450N,115-33-11.150W,32.958458,-116,http://www.dot.ca.gov/hq/planning/aeronaut/helipads/dataplates/pdfs/Pioneers_Memorial_Hospital_HP.pdf,Pioneers_Memorial_Hospital_HP.pdf
-120.961944,39.940194,90,Plumas District Hospital HP,Plumas District,Quincy,Plumas,CL94,02074.02*H,0,0,39-56-24.900N,120-57-43.200W,39-56-24.700N,120-57-43.000W,39.940194,-121,http://www.dot.ca.gov/hq/planning/aeronaut/helipads/dataplates/pdfs/Plumas_District_Hospital_HP.pdf,Plumas_District_Hospital_HP.pdf
-117.055556,32.996111,91,Pomerado Hospital HP,Pomerado,Poway,San Diego,1CL5,02063.71*H,0,0,32-59-46.000N,117-03-21.000W,32-59-46.000N,117-03-20.000W,32.996111,-117,http://www.dot.ca.gov/hq/planning/aeronaut/helipads/dataplates/pdfs/Pomerado_Hospital_HP.pdf,Pomerado_Hospital_HP.pdf
-118.049611,33.971528,92,Presbyterian Intercommunity Hospital HP,Presbyterian Intercommunity,Whittier,Los Angeles,31CL,02444.*H,0,0,33-58-16.000N,118-02-57.000W,33-58-17.500N,118-02-58.600W,33.971528,-118,http://www.dot.ca.gov/hq/planning/aeronaut/helipads/dataplates/pdfs/Presbyterian_Intercommunity_Hospital_HP.pdf,Presbyterian_Intercommunity_Hospital_HP.pdf
-118.461181,34.280139,93,Providence Holy Cross Medical Center HP,Providence Holy Cross MC,Mission Hills,Los Angeles,3CA8,02184.01*H,0,0,34-16-47.000N,118-27-38.000W,34-16-48.500N,118-27-40.250W,34.280139,-118,http://www.dot.ca.gov/hq/planning/aeronaut/helipads/dataplates/pdfs/Providence_Holy_Cross_Medical_Center_HP.pdf,Providence_Holy_Cross_Medical_Center_HP.pdf
-118.327847,34.155278,94,Providence St Joseph Medical Center HP,Providence St Joseph MC,Burbank,Los Angeles,CA95,01353.01*H,45,13.716,34-09-20.000N,118-19-41.000W,34-09-19.000N,118-19-40.250W,34.155278,-118,http://www.dot.ca.gov/hq/planning/aeronaut/helipads/dataplates/pdfs/Providence_St_Joseph_Medical_Center_HP.pdf,Providence_St_Joseph_Medical_Center_HP.pdf
-122.297069,38.323889,95,Queen of the Valley Hospital HP,Queen of the Valley,Napa,Napa,CN14,01932.4*H,0,0,38-19-45.000N,122-17-35.000W,38-19-26.000N,122-17-49.450W,38.323889,-122,http://www.dot.ca.gov/hq/planning/aeronaut/helipads/dataplates/pdfs/Queen_of_the_Valley_Hospital_HP.pdf,Queen_of_the_Valley_Hospital_HP.pdf
-117.151806,32.798681,96,Rady Children's Hospital - San Diego HP,Rady Childrens - San Diego,San Diego,San Diego,CN17,02165.03*H,49,14.935,32-47-57.000N,117-09-06.000W,32-47-55.250N,117-09-06.500W,32.798681,-117,http://www.dot.ca.gov/hq/planning/aeronaut/helipads/dataplates/pdfs/Rady_Childrens_Hospital_-_San_Diego_HP.pdf,Rady_Childrens_Hospital_-_San_Diego_HP.pdf
-121.848542,37.361458,97,Regional Medical Center San Jose HP,Regional MC San Jose,San Jose,Santa Clara,88CA,02202.51*H,18,5.486,37-21-41.000N,121-50-55.000W,37-21-41.250N,121-50-54.750W,37.361458,-122,http://www.dot.ca.gov/hq/planning/aeronaut/helipads/dataplates/pdfs/Regional_Medical_Center_San_Jose_HP.pdf,Regional_Medical_Center_San_Jose_HP.pdf
-117.672014,35.640347,98,Ridgecrest Regional Hospital HP,Ridgecrest Regional,Ridgecrest,Kern,CA77,C2109.02*H,0,0,35-38-25.000N,117-40-16.000W,35-38-25.250N,117-40-19.250W,35.640347,-118,http://www.dot.ca.gov/hq/planning/aeronaut/helipads/dataplates/pdfs/Ridgecrest_Regional_Hospital_HP.pdf,Ridgecrest_Regional_Hospital_HP.pdf
-117.381667,33.9775,99,Riverside Community Hospital HP,Riverside Community,Riverside,Riverside,,,31,9.449,33-58-39.000N,117-22-54.000W,33-58-39.000N,117-22-54.000W,33.9775,-117,http://www.dot.ca.gov/hq/planning/aeronaut/helipads/dataplates/pdfs/Riverside_Community_Hospital_HP.pdf,Riverside_Community_Hospital_HP.pdf
-117.196458,33.913056,100,Riverside County Regional Medical Center HP,Riverside County Regional MC,Moreno Valley,Riverside,CA28,01920.01*H,8,2.438,33-54-46.000N,117-11-47.000W,33-54-47.000N,117-11-47.250W,33.913056,-117,http://www.dot.ca.gov/hq/planning/aeronaut/helipads/dataplates/pdfs/Riverside_County_Regional_Medical_Center_HP.pdf,Riverside_County_Regional_Medical_Center_HP.pdf
-117.709264,33.6085,101,Saddleback Memorial Medical Center HP,Saddleback Memorial MC,Laguna Hills,Orange,CA68,01735.01*H,46,14.021,33-36-30.000N,117-42-32.000W,33-36-30.600N,117-42-33.350W,33.6085,-118,http://www.dot.ca.gov/hq/planning/aeronaut/helipads/dataplates/pdfs/Saddleback_Memorial_Medical_Center_HP.pdf,Saddleback_Memorial_Medical_Center_HP.pdf
-119.764972,36.835792,102,Saint Agnes Medical Center HP,Saint Agnes MC,Fresno,Fresno,,,105,32.004,36-50-09.200N,119-45-53.700W,36-50-08.850N,119-45-53.900W,36.835792,-120,http://www.dot.ca.gov/hq/planning/aeronaut/helipads/dataplates/pdfs/Saint_Agnes_Medical_Center_HP.pdf,Saint_Agnes_Medical_Center_HP.pdf
-122.477222,38.542778,103,St Helena Hospital HP,St Helena,St Helena,Napa,,,0,0,38-32-34.000N,122-28-38.000W,38-32-36.150N,122-28-29.850W,38.542778,-122,http://www.dot.ca.gov/hq/planning/aeronaut/helipads/dataplates/pdfs/St_Helena_Hospital_HP.pdf,St_Helena_Hospital_HP.pdf
-124.143264,40.784806,104,Saint Joseph Hospital HP,Saint Joseph,Eureka,Humboldt,,,0,0,40-47-02.000N,124-08-48.000W,40-47-05.300N,124-08-35.750W,40.784806,-124,http://www.dot.ca.gov/hq/planning/aeronaut/helipads/dataplates/pdfs/Saint_Joseph_Hospital_HP.pdf,Saint_Joseph_Hospital_HP.pdf
-121.571139,37.035597,105,Saint Louise Regional Hospital HP,Saint Louise Regional,Gilroy,Santa Clara,5CL2,01609.5*H,0,0,37-02-09.000N,121-34-18.000W,37-02-08.150N,121-34-16.100W,37.035597,-122,http://www.dot.ca.gov/hq/planning/aeronaut/helipads/dataplates/pdfs/Saint_Louise_Regional_Hospital_Heliport.pdf,Saint_Louise_Regional_Hospital_Heliport.pdf
-117.636181,34.102708,106,San Antonio Community Hospital HP,San Antonio Community,Upland,San Bernardino,99CA,02385.02*H,6,1.829,34-06-09.000N,117-38-11.000W,34-06-09.750N,117-38-10.250W,34.102708,-118,http://www.dot.ca.gov/hq/planning/aeronaut/helipads/dataplates/pdfs/San_Antonio_Community_Hospital_HP.pdf,San_Antonio_Community_Hospital_HP.pdf
-116.942778,33.930833,107,San Gorgonio Memorial Hospital HP,San Gorgonio Memorial,Banning,Riverside,60CN,01297.1*H,10,3.048,33-55-51.000N,116-56-34.000W,33-55-51.000N,116-56-34.000W,33.930833,-117,http://www.dot.ca.gov/hq/planning/aeronaut/helipads/dataplates/pdfs/San_Gorgonio_Memorial_Hospital_HP.pdf,San_Gorgonio_Memorial_Hospital_HP.pdf
-119.020794,35.38324,108,San Joaquin Community Hospital HP,San Joaquin Community,Bakersfield,Kern,28CN,01289.4*H,65,19.812,35-23-01.000N,119-01-08.000W,35-22-59.650N,119-01-14.850W,35.38324,-119,http://www.dot.ca.gov/hq/planning/aeronaut/helipads/dataplates/pdfs/San_Joaquin_Community_Hospital_HP.pdf,San_Joaquin_Community_Hospital_HP.pdf
-121.282694,37.887847,109,San Joaquin General Hospital HP,San Joaquin General,French Camp,San Joaquin,CL52,02315.11*H,0,0,37-53-19.000N,121-17-02.000W,37-53-16.250N,121-16-57.700W,37.887847,-121,http://www.dot.ca.gov/hq/planning/aeronaut/helipads/dataplates/pdfs/San_Joaquin_General_Hospital_HP.pdf,San_Joaquin_General_Hospital_HP.pdf
-119.724159,34.429834,110,Santa Barbara Cottage Hospital HP,Santa Barbara Cottage,Santa Barbara,Santa Barbara,,,63,19.202,34-25-48.000N,119-43-27.000W,34-25-47.400N,119-43-26.970W,34.429834,-120,http://www.dot.ca.gov/hq/planning/aeronaut/helipads/dataplates/pdfs/SantaBarbaraCottageHospitalHP.pdf,SantaBarbaraCottageHospitalHP.pdf
-121.934236,37.313264,111,Santa Clara Valley Medical Center HP,Santa Clara Valley MC,San Jose,Santa Clara,CA33,02202.3*H,65,19.812,37-18-51.000N,121-56-03.000W,37-18-47.750N,121-56-03.250W,37.313264,-122,http://www.dot.ca.gov/hq/planning/aeronaut/helipads/dataplates/pdfs/Santa_Clara_Valley_Medical_Center_HP.pdf,Santa_Clara_Valley_Medical_Center_HP.pdf
-122.701333,38.443514,112,Santa Rosa Memorial Hospital HP,Santa Rosa Memorial,Santa Rosa,Sonoma,CL51,02258.01*H,28,8.534,38-26-38.000N,122-42-01.000W,38-26-36.650N,122-42-04.800W,38.443514,-123,http://www.dot.ca.gov/hq/planning/aeronaut/helipads/dataplates/pdfs/Santa_Rosa_Memorial_Hospital_HP.pdf,Santa_Rosa_Memorial_Hospital_HP.pdf
-118.380964,34.076293,113,Saperstein Critical Care Tower HP,Saperstein Critical Care Tower,Los Angeles,Los Angeles,CA46,01817.49*H,169,51.511,34-04-35.000N,118-22-55.000W,34-04-34.65N,118-22-55.450W,34.076293,-118,http://www.dot.ca.gov/hq/planning/aeronaut/helipads/dataplates/pdfs/Saperstein_Critical_Care_Tower_HP.pdf,Saperstein_Critical_Care_Tower_HP.pdf
-117.225486,32.88625,114,Scripps Memorial Hospital HP,Scripps Memorial,La Jolla,San Diego,CA24,01737.*H,0,0,32-53-11.000N,117-13-29.000W,32-53-10.500N,117-13-31.750W,32.88625,-117,http://www.dot.ca.gov/hq/planning/aeronaut/helipads/dataplates/pdfs/Scripps_Memorial_Hospital_HP.pdf,Scripps_Memorial_Hospital_HP.pdf
-117.160625,32.75125,115,Scripps Mercy Hospital HP,Scripps Mercy,San Diego,San Diego,CL97,02166.17*H,35,10.668,32-45-04.000N,117-09-34.000W,32-45-04.500N,117-09-38.250W,32.75125,-117,http://www.dot.ca.gov/hq/planning/aeronaut/helipads/dataplates/pdfs/Scripps_Mercy_Hospital_HP.pdf,Scripps_Mercy_Hospital_HP.pdf
-117.153333,32.799444,117,Sharp Memorial Hospital HP,Sharp Memorial,San Diego,San Diego,,,57,17.374,32-47-58.000N,117-09-12.000W,32-47-58.000N,117-09-12.000W,32.799444,-117,http://www.dot.ca.gov/hq/planning/aeronaut/helipads/dataplates/pdfs/Sharp_Memorial_Hospital_HP.pdf,Sharp_Memorial_Hospital_HP.pdf
-122.387625,40.586,118,Shasta Regional Medical Center N HP,Shasta Regional MC N,Redding,Shasta,,,45,13.716,40-35-11.000N,122-23-02.000W,40-35-09.600N,122-23-15.450W,40.586,-122,http://www.dot.ca.gov/hq/planning/aeronaut/helipads/dataplates/pdfs/Shasta_Regional_Medical_Center_N_and_S_HP.pdf,Shasta_Regional_Medical_Center_N_and_S_HP.pdf
-122.387875,40.585111,119,Shasta Regional Medical Center S HP,Shasta Regional MC S,Redding,Shasta,,,72,21.946,40-35-11.000N,122-23-02.000W,40-35-06.400N,122-23-16.350W,40.585111,-122,http://www.dot.ca.gov/hq/planning/aeronaut/helipads/dataplates/pdfs/Shasta_Regional_Medical_Center_N_and_S_HP.pdf,Shasta_Regional_Medical_Center_N_and_S_HP.pdf
-118.449486,34.159889,120,Sherman Oaks Hospital & Health Center HP,Sherman Oaks Hospital & Health Center,Sherman Oaks,Los Angeles,CL80,02294.5*H,26,7.925,34-09-36.000N,118-26-55.000W,34-09-35.600N,118-26-58.150W,34.159889,-118,http://www.dot.ca.gov/hq/planning/aeronaut/helipads/dataplates/pdfs/Sherman_Oaks_Hospital_Health_Center_HP.pdf,Sherman_Oaks_Hospital_Health_Center_HP.pdf
-121.047556,39.227486,121,Sierra Nevada Memorial Hospital HP,Sierra Nevada Memorial,Grass Valley,Nevada,CA15,01625.11*H,44,13.411,39-13-39.000N,121-02-51.000W,39-13-38.950N,121-02-51.200W,39.227486,-121,http://www.dot.ca.gov/hq/planning/aeronaut/helipads/dataplates/pdfs/Sierra_Nevada_Memorial_Hospital_HP.pdf,Sierra_Nevada_Memorial_Hospital_HP.pdf
-118.745972,34.289167,122,Simi Valley Hospital HP,Simi Valley,Simi Valley,Ventura,,,0,0,34-17-22.000N,118-44-38.000W,34-17-21.000N,118-44-45.500W,34.289167,-119,http://www.dot.ca.gov/hq/planning/aeronaut/helipads/dataplates/pdfs/Simi_Valley_Hospital_HP.pdf,Simi_Valley_Hospital_HP.pdf
-120.371944,37.977028,123,Sonora Community Hospital HP,Sonora Community,Sonora,Tuolumne,,,0,0,37-58-40.000N,120-22-15.000W,37-58-37.300N,120-22-19.000W,37.977028,-120,http://www.dot.ca.gov/hq/planning/aeronaut/helipads/dataplates/pdfs/Sonora_Community_Hospital_HP.pdf,Sonora_Community_Hospital_HP.pdf
-122.220556,40.148611,124,St Elizabeth Community Hospital HP,St Elizabeth Community,Red Bluff,Tehama,,,0,0,40-08-57.000N,122-13-10.000W,40-08-55.000N,122-13-14.000W,40.148611,-122,http://www.dot.ca.gov/hq/planning/aeronaut/helipads/dataplates/pdfs/St_Elizabeth_Community_Hospital_HP.pdf,St_Elizabeth_Community_Hospital_HP.pdf
-118.202639,33.929861,125,St Francis Medical Center HP,St Francis MC,Lynwood,Los Angeles,4CA4,01850.*H,62,18.898,33-55-49.000N,118-12-06.000W,33-55-47.500N,118-12-09.500W,33.929861,-118,http://www.dot.ca.gov/hq/planning/aeronaut/helipads/dataplates/pdfs/St_Francis_Medical_Center_HP.pdf,St_Francis_Medical_Center_HP.pdf
-119.157319,34.216625,126,St John's Regional Medical Center HP,St Johns Regional MC,Oxnard,Ventura,2CL6,02001.02*H,0,0,34-13-00.000N,119-09-25.000W,34-12-59.850N,119-09-26.350W,34.216625,-119,http://www.dot.ca.gov/hq/planning/aeronaut/helipads/dataplates/pdfs/St_Johns_Regional_Medical_Center_HP.pdf,St_Johns_Regional_Medical_Center_HP.pdf
-121.287903,37.970194,127,St Josephs Medical Center HP,St Josephs MC,Stockton,San Joaquin,,,25,7.62,37-58-16.000N,121-17-15.000W,37-58-12.700N,121-17-16.450W,37.970194,-121,http://www.dot.ca.gov/hq/planning/aeronaut/helipads/dataplates/pdfs/St_Josephs_Medical_Center_HP.pdf,St_Josephs_Medical_Center_HP.pdf
-118.186,33.780653,128,St Mary Medical Center HP,St Mary MC,Long Beach,Los Angeles,50CA,01794.22*H,136,41.453,33-46-44.000N,118-11-06.000W,33-46-50.350N,118-11-09.600W,33.780653,-118,http://www.dot.ca.gov/hq/planning/aeronaut/helipads/dataplates/pdfs/St_Mary_Medical_Center_HP.pdf,St_Mary_Medical_Center_HP.pdf
-118.2725,34.06375,129,St Vincent Medical Center HP,St Vincent MC,Los Angeles,Los Angeles,CL12,01817.01*H,104,31.699,34-03-50.000N,118-16-21.000W,34-03-49.500N,118-16-21.000W,34.06375,-118,http://www.dot.ca.gov/hq/planning/aeronaut/helipads/dataplates/pdfs/St_Vincents_Medical_Center_HP.pdf,St_Vincents_Medical_Center_HP.pdf
-122.174556,37.435167,130,Stanford Hospital HP,Stanford,Palo Alto,Santa Clara,15CA,02022.12*H,66,20.117,37-26-08.000N,122-10-26.000W,37-26-06.600N,122-10-28.400W,37.435167,-122,http://www.dot.ca.gov/hq/planning/aeronaut/helipads/dataplates/pdfs/Stanford_Hospital_HP.pdf,Stanford_Hospital_HP.pdf
-120.763931,38.351,131,Sutter Amador Hospital HP,Sutter Amador,Jackson,Amador,CL21,01701.01*H,0,0,38-21-00.000N,120-45-51.000W,38-21-03.600N,120-45-50.150W,38.351,-121,http://www.dot.ca.gov/hq/planning/aeronaut/helipads/dataplates/pdfs/Sutter_Amador_Hospital_HP.pdf,Sutter_Amador_Hospital_HP.pdf
-122.905639,39.105347,132,Sutter Lakeside Hospital HP,Sutter Lakeside,Lakeport,Lake,CL69,01743.01*H,0,0,39-06-21.000N,122-54-20.000W,39-06-19.250N,122-54-20.300W,39.105347,-123,http://www.dot.ca.gov/hq/planning/aeronaut/helipads/dataplates/pdfs/Sutter_Lakeside_Hospital_HP.pdf,Sutter_Lakeside_Hospital_HP.pdf
-122.089228,37.698971,133,Sutter Medical Center Castro Valley HP,Sutter MC Castro Valley,Castro Valley,Alameda,OCA1,01379.99*H,0,0,37-41-56.000N,122-05-21.000W,37-41-56.300N,122-05-21.250W,37.698971,-122,http://www.dot.ca.gov/hq/planning/aeronaut/helipads/dataplates/pdfs/Sutter_Medical_Center_Castro_Valley_HP.pdf,Sutter_Medical_Center_Castro_Valley_HP.pdf
-122.707458,38.470625,134,Sutter Medical Center of Santa Rosa HP,Sutter MC Santa Rosa,Santa Rosa,Sonoma,,,0,0,38-28-15.000N,122-42-21.000W,38-28-14.250N,122-42-26.850W,38.470625,-123,http://www.dot.ca.gov/hq/planning/aeronaut/helipads/dataplates/pdfs/Sutter_Medical_Center_of_Santa_Rosa_HP.pdf,Sutter_Medical_Center_of_Santa_Rosa_HP.pdf
-121.248083,38.766625,135,Sutter Roseville Medical Center HP,Sutter Roseville MC,Roseville,Placer,,,33,10.058,38-45-58.000N,121-14-52.000W,38-45-59.850N,121-14-53.100W,38.766625,-121,http://www.dot.ca.gov/hq/planning/aeronaut/helipads/dataplates/pdfs/Sutter_Roseville_Medical_Center_HP.pdf,Sutter_Roseville_Medical_Center_HP.pdf
-122.2375,38.131944,136,Sutter Solano Medical Center HP,Sutter Solano MC,Vallejo,Solano,,,0,0,38-07-55.000N,122-14-09.000W,38-07-55.000N,122-14-15.000W,38.131944,-122,http://www.dot.ca.gov/hq/planning/aeronaut/helipads/dataplates/pdfs/Sutter_Solano_Medical_Center_HP.pdf,Sutter_Solano_Medical_Center_HP.pdf
-120.200264,39.324125,137,Tahoe Forest Hospital HP,Tahoe Forest,Truckee,Nevada,64CA,02366.01*H,0,0,39-19-27.000N,120-11-57.000W,39-19-26.850N,120-12-00.950W,39.324125,-120,http://www.dot.ca.gov/hq/planning/aeronaut/helipads/dataplates/pdfs/Tahoe_Forest_Hospital_HP.pdf,Tahoe_Forest_Hospital_HP.pdf
-117.291111,33.185278,138,Tri City Medical Center HP,Tri City MC,Oceanside,San Diego,36CL,01975.12*H,22,6.706,33-11-07.000N,117-17-25.000W,33-11-07.000N,117-17-28.000W,33.185278,-117,http://www.dot.ca.gov/hq/planning/aeronaut/helipads/dataplates/pdfs/Tri_City_Medical_Center_HP.pdf,Tri_City_Medical_Center_HP.pdf
-120.718986,35.556028,139,Twin Cities Community Hospital HP,Twin Cities Community,Templeton,San Luis Obispo,18CA,02347.*H,0,0,35-33-22.000N,120-43-09.000W,35-33-21.700N,120-43-08.350W,35.556028,-121,http://www.dot.ca.gov/hq/planning/aeronaut/helipads/dataplates/pdfs/Twin_Cities_Community_Hospital_HP.pdf,Twin_Cities_Community_Hospital_HP.pdf
-121.455466,38.554838,140,UC Davis Medical Center Tower ll HP,UC Davis MC Tower ll,Sacramento,Sacramento,3CL0,02124.03*H,205,62.484,38-33-17.260N,121-27-21.000W,38-33-17.400N,121-27-19.650W,38.554838,-121,http://www.dot.ca.gov/hq/planning/aeronaut/helipads/dataplates/pdfs/UC_Davis_Medical_Center_Tower_II_HP.pdf,UC_Davis_Medical_Center_Tower_II_HP.pdf
-117.165528,32.754167,141,UC San Diego Medical Center HP,UC San Diego MC,San Diego,San Diego,20CN,02177.01*H,55,16.764,32-45-14.000N,117-09-53.000W,32-45-15.000N,117-09-55.900W,32.754167,-117,http://www.dot.ca.gov/hq/planning/aeronaut/helipads/dataplates/pdfs/UC_San_Diego_Medical_Center_HP.pdf,UC_San_Diego_Medical_Center_HP.pdf
-117.890417,33.788583,142,UCI Medical Center HP,UCI MC,Orange,Orange,1CL4,01989.11*H,6,1.829,33-47-20.000N,117-53-23.000W,33-47-18.900N,117-53-25.500W,33.788583,-118,http://www.dot.ca.gov/hq/planning/aeronaut/helipads/dataplates/pdfs/UCI_Medical_Center_HP.pdf,UCI_Medical_Center_HP.pdf
-118.447099,34.066757,143,UCLA Medical Center Westwood (Ronald Reagan) East,UCLA  MC Westwood E,Los Angeles,Los Angeles,,,150,45.72,34-04-00.000N,118-26-46.000W,34-04-00.300N,118-26-49.550W,34.066757,-118,http://www.dot.ca.gov/hq/planning/aeronaut/helipads/dataplates/pdfs/UCLA_Medical_Center_Westwood_Ronald_Reagan_HP.pdf,UCLA_Medical_Center_Westwood_Ronald_Reagan_HP.pdf
-118.446624,34.066755,144,UCLA Medical Center Westwood (Ronald Reagan) West,UCLA  MC Westwood W,Los Angeles,Los Angeles,,,150,45.72,34-04-00.000N,118-26-48.000W,34-04-00.300N,118-26-47.850W,34.066755,-118,http://www.dot.ca.gov/hq/planning/aeronaut/helipads/dataplates/pdfs/UCLA_Medical_Center_Westwood_Ronald_Reagan_HP.pdf,UCLA_Medical_Center_Westwood_Ronald_Reagan_HP.pdf
-123.203417,39.152625,145,Ukiah Valley Medical Center HP,Ukiah Valley MC,Ukiah,Mendocino,39CN,02383.01*H,0,0,39-09-10.000N,123-12-12.000W,39-09-09.450N,123-12-12.300W,39.152625,-123,http://www.dot.ca.gov/hq/planning/aeronaut/helipads/dataplates/pdfs/Ukiah_Valley_Medical_Center_HP.pdf,Ukiah_Valley_Medical_Center_HP.pdf
-118.201528,34.061667,146,USC University Hospital HP,USC University,Los Angeles,Los Angeles,CL00,C1817.97*H,106,32.309,34-03-41.000N,118-12-03.000W,34-03-42.000N,118-12-05.500W,34.061667,-118,http://www.dot.ca.gov/hq/planning/aeronaut/helipads/dataplates/pdfs/USC_University_Hospital_HP.pdf,USC_University_Hospital_HP.pdf
-121.951167,38.355333,147,Vaca Valley Hospital HP,Vaca Valley,Vacaville,Solano,CL96,02389.11*H,0,0,38-21-21.000N,121-57-01.000W,38-21-19.200N,121-57-04.200W,38.355333,-122,http://www.dot.ca.gov/hq/planning/aeronaut/helipads/dataplates/pdfs/Vaca_Valley_Hospital_HP.pdf,Vaca_Valley_Hospital_HP.pdf
-121.880875,37.694389,148,ValleyCare Medical Center HP,ValleyCare MC,Pleasanton,Alameda,,,0,0,37-41-39.000N,121-52-46.000W,37-41-39.800N,121-52-51.150W,37.694389,-122,http://www.dot.ca.gov/hq/planning/aeronaut/helipads/dataplates/pdfs/ValleyCare_Medical_Center_HP.pdf,ValleyCare_Medical_Center_HP.pdf
-119.252667,34.276528,149,Ventura County Medical Center HP,Ventura County MC,Ventura,Ventura,,,55,16.764,34-16-40.000N,119-15-05.000W,34-16-35.500N,119-15-09.600W,34.276528,-119,http://www.dot.ca.gov/hq/planning/aeronaut/helipads/dataplates/pdfs/Ventura_County_Medical_Center_HP.pdf,Ventura_County_Medical_Center_HP.pdf
-118.217292,34.204167,150,Verdugo Hills Hospital HP,Verdugo Hills,Glendale,Los Angeles,95CL,01611.12*H,0,0,34-12-15.000N,118-13-00.000W,34-12-15.000N,118-13-02.250W,34.204167,-118,http://www.dot.ca.gov/hq/planning/aeronaut/helipads/dataplates/pdfs/Verdugo_Hills_HP.pdf,Verdugo_Hills_HP.pdf
-117.292778,34.527778,151,Victor Valley Community Hospital HP,Victor Valley Community,Victorville,San Bernardino,69CA,02407.02*H,17,5.182,34-31-40.000N,117-17-34.000W,34-31-40.000N,117-17-34.000W,34.527778,-117,http://www.dot.ca.gov/hq/planning/aeronaut/helipads/dataplates/pdfs/Victor_Valley_Community_Hospital_HP.pdf,Victor_Valley_Community_Hospital_HP.pdf
-121.97825,37.556431,152,Washington Hospital HP,Washington,Fremont,Alameda,CL64,01588.24*H,0,0,37-33-23.000N,121-58-38.000W,37-33-23.150N,121-58-41.700W,37.556431,-122,http://www.dot.ca.gov/hq/planning/aeronaut/helipads/dataplates/pdfs/Washington_Hospital_HP.pdf,Washington_Hospital_HP.pdf
-117.83275,33.754931,153,Western Medical Center HP,Western MC,Santa Ana,Orange,1CN1,02228.23*H,0,0,33-45-16.000N,117-49-55.000W,33-45-17.750N,117-49-57.900W,33.754931,-118,http://www.dot.ca.gov/hq/planning/aeronaut/helipads/dataplates/pdfs/Western_Medical_Center_HP.pdf,Western_Medical_Center_HP.pdf
-117.865006,33.780752,155,Childrens Hospital of Orange County South Tower HP,Childrens of Orange County South,Orange,Orange,4CA5,01989.14*H,129,39.319,33-46-50.700N,117-51-54.600W,33-46-53.250N,117-51-55.450W,33.780752,-118,http://www.dot.ca.gov/hq/planning/aeronaut/helipads/dataplates/pdfs/Childrens_Hospital_of_Orange_County_HP.pdf,Childrens_Hospital_of_Orange_County_HP.pdf
-121.142809,38.670869,156,Mercy Hospital of Folsom HP,Mercy Folsom,Folsom,Sacramento,,,0,0,38-40-14.000N,121-08-35.000W,38-40-14.000N,121-08-35.000W,38.670869,-121,http://www.dot.ca.gov/hq/planning/aeronaut/helipads/dataplates/pdfs/Mercy_Hospital_of_Folsom_HP.pdf,Mercy_Hospital_of_Folsom_HP.pdf
-117.285067,33.037108,157,Scripps Memorial Hospital Encinitas HP,Scripps Encintas,Encinitas,San Diego,,,51,15.545,33-02-13.500N,117-17-06.300W,33-02-13.000N,117-17-06.000W,33.037108,-117,http://www.dot.ca.gov/hq/planning/aeronaut/helipads/dataplates/pdfs/Scripps_Memorial_Hospital_Encinitas_HP.pdf,Scripps_Memorial_Hospital_Encinitas_HP.pdf
-122.390328,37.766627,158,UCSF Medical Center Mission Bay HP,UCSF MC Mission Bay,San Francisco,San Francisco,,,0,0,37-45-56.000N,122-23-26.000W,37-45-59.857N,122-23-25.180W,37.766627,-122,http://www.dot.ca.gov/hq/planning/aeronaut/helipads/dataplates/pdfs/UCSF_Medical_Center_Mission_Bay_HP,UCSF_Medical_Center_Mission_Bay_HP
-121.940423,38.388731,159,Kaiser Permanente Vacaville HP,Kaiser Permanente Vacaville,Vacaville,Solano,,,100,30.48,38-23-19.500N,121-56-25.500W,38-23-19.500N,121-56-25.500W,38.388731,-122,http://www.dot.ca.gov/hq/planning/aeronaut/helipads/dataplates/pdfs/Kaiser_Permanente_Vacaville_HP.pdf,Kaiser_Permanente_Vacaville_HP.pdf
-119.293861,36.328092,160,Kaweah Delta District HP,Kaweah Delta,Visalia,Tulare,,,19,5.79,36-19-41.000N,119-17-38.000W,36-19-41.131N,119-17-37.895W,36.328092,-119,http://www.dot.ca.gov/hq/planning/aeronaut/helipads/dataplates/pdfs/Kaweah_Delta_District_HP.pdf,Kaweah_Delta_District_HP.pdf
-120.666041,35.293709,161,Sierra Vista Regional Medical Center HP,Sierra Vista Regional MC,San Luis Obispo,San Luis Obispo,,,43,13.106,35-17-38.000N,120-39-58.000W,35-17-37.597N,120-39-58.000W,35.293709,-121,http://www.dot.ca.gov/hq/planning/aeronaut/helipads/dataplates/pdfs/Sierra_Vista_Regional_Medical_Center_HP.pdf,Sierra_Vista_Regional_Medical_Center_HP.pdf
-117.221049,32.876452,162,UCSD Health System East Campus HP,UCSD Health E Campus,La Jolla,San Diego,,,0,0,32-52-35.000N,117-13-16.000W,32-52-35.227N,117-13-15.776W,32.876452,-117,http://www.dot.ca.gov/hq/planning/aeronaut/helipads/dataplates/pdfs/UCSD_Health_Systems_East_Campus_Interim_HP.pdf,UCSD_Health_Systems_East_Campus_Interim_HP.pdf
-118.629028,34.203214,163,West Hills Hospital Heliport,West Hills,West Hills,Los Angeles,,,43,13.11,34-12-11.570N,118-37-44.500W,34-12-11.570N,118-37-44.500W,34.203214,-119,http://www.dot.ca.gov/hq/planning/aeronaut/helipads/dataplates/pdfs/West_Hills_Hp.pdf,West_Hills_Hp.pdf
